[{"OBJECT_NAME":"STARLINK-2221","OBJECT_ID":"2021-041U","EPOCH":"2026-03-09T10:10:16.115232","MEAN_MOTION":15.30211456,"ECCENTRICITY":0.00013188,"INCLINATION":53.1596,"RA_OF_ASC_NODE":140.8205,"ARG_OF_PERICENTER":78.4014,"MEAN_ANOMALY":281.7134,"EPHEMERIS_TYPE":0,"CLASSIFICATION_TYPE":"U","NORAD_CAT_ID":48571,"ELEMENT_SET_NO":999,"REV_AT_EPOCH":26505,"BSTAR":0.00030754127,"MEAN_MOTION_DOT":8.763e-5,"MEAN_MOTION_DDOT":0},{"OBJECT_NAME":"OBJECT M","OBJECT_ID":"2025-155M","EPOCH":"2026-03-09T22:37:12.666144","MEAN_MOTION":15.33288683,"ECCENTRICITY":0.00088001,"INCLINATION":97.4429,"RA_OF_ASC_NODE":38.1052,"ARG_OF_PERICENTER":139.1253,"MEAN_ANOMALY":221.0651,"EPHEMERIS_TYPE":0,"CLASSIFICATION_TYPE":"U","NORAD_CAT_ID":64887,"ELEMENT_SET_NO":999,"REV_AT_EPOCH":6565,"BSTAR":0.00087834095,"MEAN_MOTION_DOT":0.00028279,"MEAN_MOTION_DDOT":0}]
